      2.10          N: GNSS NAV DATA                        RINEX VERSION / TYPE
fic2rin                                 12/02/2021 00:17:30 PGM / RUN BY / DATE
                                                            END OF HEADER
11 21 12  1 16  0  0.0 1.643365249038e-05-2.614797267597e-12 0.000000000000e+00
    4.900000000000e+01-5.143750000000e+01 4.179102647828e-09 2.792053267174e+00
   -2.713873982430e-06 3.732144832611e-04 1.199729740620e-05 5.153744398117e+03
    3.168000000000e+05-2.607703208923e-08-4.887681029705e-01-1.676380634308e-08
    9.615766781683e-01 1.446875000000e+02 2.629327493975e+00-7.851041313098e-09
    1.917937032633e-10 1.000000000000e+00 2.186000000000e+03 0.000000000000e+00
    6.144000000000e+03 6.300000000000e+01-8.847564458847e-09 4.900000000000e+01
    3.096000000000e+05 4.000000000000e+00
28 21 12  1 16  0  0.0 4.518493078649e-04-7.617018127348e-12 0.000000000000e+00
    9.700000000000e+01 1.131250000000e+02 4.335894893140e-09 3.084935736710e+00
    5.837529897690e-06 1.727795368060e-02 3.773719072342e-06 5.153714679718e+03
    3.168000000000e+05 2.309679985046e-07-2.547333021754e+00 1.452863216400e-07
    9.706422118070e-01 3.110312500000e+02-1.306870726057e+00-7.974617889130e-09
    2.014369620866e-10 1.000000000000e+00 2.186000000000e+03 0.000000000000e+00
    4.850000000000e+00 6.300000000000e+01-1.117587089539e-08 9.700000000000e+01
    3.096000000000e+05 4.000000000000e+00
 3 21 12  1 15 59 44.0-2.846121788025e-05-1.102762325900e-11 0.000000000000e+00
    2.000000000000e+00 3.315625000000e+01 4.606263297927e-09-7.936533340470e-01
    1.844018697739e-06 3.862873534672e-03 7.800757884979e-06 5.153720474243e+03
    3.167840000000e+05 9.313225746155e-09 5.009314109925e-01 4.470348358154e-08
    9.716889867466e-01 2.385000000000e+02 9.999262256609e-01-8.075693527908e-09
    6.314548740587e-10 1.000000000000e+00 2.186000000000e+03 0.000000000000e+00
    2.400000000000e+00 0.000000000000e+00 1.862645149231e-09 2.000000000000e+00
    3.132900000000e+05 4.000000000000e+00
10 21 12  1 15 59 44.0-2.586706541479e-04-8.753886504564e-12 0.000000000000e+00
    3.000000000000e+00 2.950000000000e+01 4.561975738887e-09-1.589832798460e+00
    1.452863216400e-06 7.269750349224e-03 7.247552275658e-06 5.153669492722e+03
    3.167840000000e+05 1.061707735062e-07 4.981182853574e-01-9.313225746155e-08
    9.715339774098e-01 2.426875000000e+02-2.568233862552e+00-7.979975255143e-09
    6.986005280875e-10 1.000000000000e+00 2.186000000000e+03 0.000000000000e+00
    2.400000000000e+00 0.000000000000e+00 2.328306436539e-09 3.000000000000e+00
    3.134100000000e+05 4.000000000000e+00
28 21 12  1 15 59 44.0 4.518320783973e-04-7.730704965070e-12 0.000000000000e+00
    4.000000000000e+00 1.131250000000e+02 4.335894893140e-09 3.082602091253e+00
    5.837529897690e-06 1.727794855833e-02 3.773719072342e-06 5.153714681625e+03
    3.167840000000e+05 2.309679985046e-07-2.547332859370e+00 1.452863216400e-07
    9.706422147329e-01 3.110312500000e+02-1.306870781648e+00-7.974617889130e-09
    2.010798043524e-10 1.000000000000e+00 2.186000000000e+03 0.000000000000e+00
    2.400000000000e+00 6.300000000000e+01-1.117587089539e-08 4.000000000000e+00
    3.135600000000e+05 4.000000000000e+00
 3 21 12  1 17 59 44.0-2.854084596038e-05-1.102762325900e-11 0.000000000000e+00
    4.200000000000e+01 2.806250000000e+01 4.565547316229e-09 2.563979772849e-01
    1.296401023865e-06 3.862173412926e-03 7.957220077515e-06 5.153718988419e+03
    3.239840000000e+05-5.587935447693e-09 5.008731853901e-01 2.607703208923e-08
    9.716935115522e-01 2.350000000000e+02 1.000028476320e+00-8.085336786731e-09
    6.314548740587e-10 1.000000000000e+00 2.186000000000e+03 0.000000000000e+00
    2.400000000000e+00 0.000000000000e+00 1.862645149231e-09 4.200000000000e+01
    3.168000000000e+05 4.000000000000e+00
10 21 12  1 17 59 44.0-2.587339840829e-04-8.753886504564e-12 0.000000000000e+00
    7.000000000000e+00 3.046875000000e+01 4.605906140193e-09-5.396541093883e-01
    1.704320311546e-06 7.269902154803e-03 7.262453436852e-06 5.153669561386e+03
    3.239840000000e+05 9.499490261078e-08 4.980607985286e-01 1.136213541031e-07
    9.715379463066e-01 2.448125000000e+02-2.568228793541e+00-8.164268645988e-09
    6.157399337540e-10 1.000000000000e+00 2.186000000000e+03 0.000000000000e+00
    2.400000000000e+00 0.000000000000e+00 2.328306436539e-09 7.000000000000e+00
    3.168000000000e+05 4.000000000000e+00
28 21 12  1 17 59 44.0 4.517766647041e-04-7.730704965070e-12 0.000000000000e+00
    3.300000000000e+01 1.145937500000e+02 4.325180161115e-09-2.150441033975e+00
    6.105750799179e-06 1.727803028189e-02 3.945082426071e-06 5.153714366913e+03
    3.239840000000e+05 1.490116119385e-07-2.547390213073e+00 3.147870302200e-07
    9.706436937431e-01 3.088750000000e+02-1.306858637965e+00-8.026405760589e-09
    2.171519023912e-10 1.000000000000e+00 2.186000000000e+03 0.000000000000e+00
    2.400000000000e+00 6.300000000000e+01-1.117587089539e-08 3.300000000000e+01
    3.168000000000e+05 4.000000000000e+00
 2 21 12  1 18  0  0.0-6.441622972488e-04-1.364242052659e-12 0.000000000000e+00
    3.700000000000e+01-9.109375000000e+01 3.928377918423e-09 1.621888060456e+00
   -4.930421710014e-06 2.055781998206e-02 1.083314418793e-05 5.153815145493e+03
    3.240000000000e+05 2.272427082062e-07-6.220019509351e-01-5.010515451431e-07
    9.648602563140e-01 1.719062500000e+02-1.474923981693e+00-7.740679573232e-09
    7.714607058635e-11 1.000000000000e+00 2.186000000000e+03 0.000000000000e+00
    2.400000000000e+00 0.000000000000e+00-1.769512891769e-08 3.700000000000e+01
    3.168000000000e+05 4.000000000000e+00
 1 21 12  1 18  0  0.0 4.956386983395e-04-1.034550223267e-11 0.000000000000e+00
    4.200000000000e+01-9.293750000000e+01 3.531932833465e-09 1.435289042693e+00
   -4.757195711136e-06 1.113129826263e-02 1.273304224014e-05 5.153684474945e+03
    3.240000000000e+05-1.918524503708e-07-5.343337937873e-01 6.519258022308e-08
    9.864962909817e-01 1.488750000000e+02 8.851421372886e-01-7.698177802862e-09
    8.036049019412e-11 1.000000000000e+00 2.186000000000e+03 0.000000000000e+00
    2.400000000000e+00 0.000000000000e+00 5.122274160385e-09 4.200000000000e+01
    3.168000000000e+05 4.000000000000e+00
 5 21 12  1 18  0  0.0-6.294809281826e-05-1.250555214938e-12 0.000000000000e+00
    5.200000000000e+01 3.859375000000e+01 4.760198281365e-09-2.217898512650e+00
    1.821666955948e-06 5.956738139503e-03 7.582828402519e-06 5.153621973038e+03
    3.240000000000e+05 7.078051567078e-08 4.614972633506e-01 2.235174179077e-08
    9.587074379215e-01 2.275937500000e+02 1.018015882116e+00-8.127481399366e-09
    6.743138021622e-10 1.000000000000e+00 2.186000000000e+03 0.000000000000e+00
    2.400000000000e+00 0.000000000000e+00-1.117587089539e-08 5.200000000000e+01
    3.168000000000e+05 4.000000000000e+00
 6 21 12  1 18  0  0.0 1.316661946476e-04 9.663381206337e-12 0.000000000000e+00
    4.100000000000e+01-8.343750000000e+01 3.533004306668e-09 1.832701116866e+00
   -4.263594746590e-06 2.453916473314e-03 1.187250018120e-05 5.153630331039e+03
    3.240000000000e+05 8.568167686462e-08-5.425921287286e-01 1.862645149231e-09
    9.858924832478e-01 1.627812500000e+02-1.037831543450e+00-7.525313459511e-09
    1.167905790821e-10 1.000000000000e+00 2.186000000000e+03 0.000000000000e+00
    2.400000000000e+00 0.000000000000e+00 4.190951585770e-09 4.100000000000e+01
    3.168000000000e+05 4.000000000000e+00
 4 21 12  1 18  0  0.0-2.003852277994e-04 1.136868377216e-12 0.000000000000e+00
    7.000000000000e+01-4.303125000000e+01 5.045924468722e-09-2.998429366196e+00
   -2.143904566765e-06 1.550608780235e-03 6.740912795067e-06 5.153664831161e+03
    3.240000000000e+05 2.607703208923e-08 1.582173626488e+00-4.284083843231e-08
    9.603767327801e-01 2.521250000000e+02-3.136034341698e+00-8.252843764069e-09
   -3.885876148053e-10 1.000000000000e+00 2.186000000000e+03 0.000000000000e+00
    2.400000000000e+00 0.000000000000e+00-4.190951585770e-09 5.820000000000e+02
    3.168000000000e+05 4.000000000000e+00
16 21 12  1 18  0  0.0-4.334389232099e-04-6.252776074689e-12 0.000000000000e+00
    4.100000000000e+01 1.099687500000e+02 4.495187242592e-09-1.764321034276e+00
    5.632638931274e-06 1.241459476296e-02 3.512948751450e-06 5.153563970566e+03
    3.240000000000e+05 1.210719347000e-07-2.550871377323e+00-1.844018697739e-07
    9.715160478858e-01 3.168437500000e+02 6.848161554217e-01-8.212484940105e-09
    3.739441477033e-10 1.000000000000e+00 2.186000000000e+03 0.000000000000e+00
    2.400000000000e+00 0.000000000000e+00-1.024454832077e-08 4.100000000000e+01
    3.168000000000e+05 4.000000000000e+00
14 21 12  1 18  0  0.0-4.802411422133e-05-6.480149750132e-12 0.000000000000e+00
    1.140000000000e+02 1.133125000000e+02 4.842701717965e-09 8.311129753057e-02
    5.699694156647e-06 1.194182434119e-03 4.718080163002e-06 5.153644472122e+03
    3.240000000000e+05-1.676380634308e-08-2.599635934551e+00 3.725290298462e-08
    9.549931415833e-01 2.851875000000e+02 3.098001518895e+00-8.450709148814e-09
    1.867934949846e-10 1.000000000000e+00 2.186000000000e+03 0.000000000000e+00
    2.400000000000e+00 0.000000000000e+00-7.916241884232e-09 1.140000000000e+02
    3.168000000000e+05 4.000000000000e+00
12 21 12  1 18  0  0.0-1.344694755971e-04-5.570655048359e-12 0.000000000000e+00
    6.700000000000e+01 1.083750000000e+02 4.515902391175e-09 1.054775448317e-01
    5.630776286125e-06 8.403651183471e-03 4.010275006294e-06 5.153646728516e+03
    3.240000000000e+05-8.195638656616e-08-2.569533382922e+00 1.098960638046e-07
    9.715427900283e-01 3.078750000000e+02 1.229446455265e+00-8.428922527028e-09
    1.928651764659e-10 1.000000000000e+00 2.186000000000e+03 0.000000000000e+00
    2.400000000000e+00 0.000000000000e+00-1.257285475731e-08 6.700000000000e+01
    3.168000000000e+05 4.000000000000e+00
